{"type":"FeatureCollection","name":"labels","crs":{"type":"name","properties":{"name":"urn:ogc:def:crs:OGC:1.3:CRS84"}},"features":[{"type":"Feature","properties":{"fid":1,"name":"General Bazaar","chapter":3},"geometry":{"type":"MultiPoint","coordinates":[[77.608185656279,12.98680993102428]]}},{"type":"Feature","properties":{"fid":2,"name":"Ulsoor Village","chapter":3},"geometry":{"type":"MultiPoint","coordinates":[[77.62429650421782,12.97587057356713]]}},{"type":"Feature","properties":{"fid":3,"name":"Trinity Church","chapter":3},"geometry":{"type":"MultiPoint","coordinates":[[77.62098492190773,12.972191743432534]]}},{"type":"Feature","properties":{"fid":4,"name":"Infantry","chapter":3},"geometry":{"type":"MultiPoint","coordinates":[[77.60265531382119,12.982493944109235]]}},{"type":"Feature","properties":{"fid":5,"name":"Cavalry","chapter":3},"geometry":{"type":"MultiPoint","coordinates":[[77.615040631661,12.989270413373921]]}},{"type":"Feature","properties":{"fid":6,"name":"General Parade Ground","chapter":7},"geometry":{"type":"MultiPoint","coordinates":[[77.60444356826864,12.977379200890898]]}},{"type":"Feature","properties":{"fid":7,"name":"Cantonment Bazaar","chapter":7},"geometry":{"type":"MultiPoint","coordinates":[[77.60794556656155,12.987431104277773]]}},{"type":"Feature","properties":{"fid":8,"name":"Native Infantry Lines","chapter":7},"geometry":{"type":"MultiPoint","coordinates":[[77.60070975921396,12.984123540501063]]}},{"type":"Feature","properties":{"fid":9,"name":"Cavalry Barracks","chapter":7},"geometry":{"type":"MultiPoint","coordinates":[[77.61203537071455,12.977822913067552]]}},{"type":"Feature","properties":{"fid":10,"name":"Trinity Church","chapter":7},"geometry":{"type":"MultiPoint","coordinates":[[77.6202398158879,12.972175608092801]]}},{"type":"Feature","properties":{"fid":11,"name":"Horse Artillery Barracks","chapter":7},"geometry":{"type":"MultiPoint","coordinates":[[77.62432134108512,12.973280876445688]]}},{"type":"Feature","properties":{"fid":13,"name":"Shoolay Village","chapter":7},"geometry":{"type":"MultiPoint","coordinates":[[77.60888108856422,12.96879523133682]]}},{"type":"Feature","properties":{"fid":14,"name":"Kote (Fort)","chapter":1},"geometry":{"type":"MultiPoint","coordinates":[[77.57774731413802,12.959610784982589]]}},{"type":"Feature","properties":{"fid":15,"name":"Pete (Town)","chapter":1},"geometry":{"type":"MultiPoint","coordinates":[[77.58716465779159,12.968814230277644]]}},{"type":"Feature","properties":{"fid":16,"name":"Chief Commissioner's Bungalow","chapter":7},"geometry":{"type":"MultiPoint","coordinates":[[77.59108313165949,12.982686610471065]]}},{"type":"Feature","properties":{"fid":17,"name":"Ulsoor Tank","chapter":5},"geometry":{"type":"MultiPoint","coordinates":[[77.61969933510463,12.983303788693233]]}},{"type":"Feature","properties":{"fid":18,"name":"Shoolay Tank","chapter":5},"geometry":{"type":"MultiPoint","coordinates":[[77.6118834305697,12.968808838464836]]}},{"type":"Feature","properties":{"fid":19,"name":"Soldiers' Gardens","chapter":6},"geometry":{"type":"MultiPoint","coordinates":[[77.61411654615111,12.966758432340091]]}},{"type":"Feature","properties":{"fid":20,"name":"Millers Tank","chapter":12},"geometry":{"type":"MultiPoint","coordinates":[[77.59451480933885,12.992573471820238]]}},{"type":"Feature","properties":{"fid":21,"name":"C100","chapter":9},"geometry":{"type":"MultiPoint","coordinates":[[77.60717710269945,12.98646408914324]]}},{"type":"Feature","properties":{"fid":22,"name":"Ulsoor Tank","chapter":9},"geometry":{"type":"MultiPoint","coordinates":[[77.61825757116324,12.98321492921777]]}}]}