{"type":"FeatureCollection","name":"viewpoints","crs":{"type":"name","properties":{"name":"urn:ogc:def:crs:OGC:1.3:CRS84"}},"features":[{"type":"Feature","properties":{"fid":"5","chapter":5,"angle":280},"geometry":{"type":"MultiPoint","coordinates":[[77.61355251610047,12.967174904798588]]}},{"type":"Feature","properties":{"fid":"1","chapter":6,"angle":50},"geometry":{"type":"MultiPoint","coordinates":[[77.60550484054869,12.985096461361763]]}},{"type":"Feature","properties":{"fid":"2","chapter":4,"angle":30},"geometry":{"type":"MultiPoint","coordinates":[[77.61301882471724,12.99178401186526]]}},{"type":"Feature","properties":{"fid":"3","chapter":11,"angle":200},"geometry":{"type":"MultiPoint","coordinates":[[77.59443074434887,12.991877553808724]]}},{"type":"Feature","properties":{"fid":"4","chapter":12,"angle":320},"geometry":{"type":"MultiPoint","coordinates":[[77.61803682540501,12.984590686190149]]}}]}